TDRS 3                  
1 19548U 88091B   22315.47827096 -.00000295  00000+0  00000+0 0  9994
2 19548  13.6091 350.1760 0037861 327.2010 216.6312  1.00276922112195
HST                     
1 20580U 90037B   22316.20587332  .00003649  00000+0  20087-3 0  9999
2 20580  28.4705 269.3632 0002555 187.8661 301.3557 15.11246887588859
TDRS 5                  
1 21639U 91054B   22315.67934993  .00000088  00000+0  00000+0 0  9997
2 21639  14.2273   3.4967 0023049 351.9227 132.2684  1.00270328114542
TDRS 6                  
1 22314U 93003B   22315.55627855 -.00000291  00000+0  00000+0 0  9994
2 22314  14.1412   6.7540 0008767 147.4188  50.9791  1.00270475109209
TDRS 7                  
1 23613U 95035B   22315.60078278 -.00000196  00000+0  00000+0 0  9993
2 23613  13.9225 357.4547 0024273  56.1224 298.1113  1.00267856100070
ISS (ZARYA)             
1 25544U 98067A   22316.69632410  .00011847  00000+0  21541-3 0  9991
2 25544  51.6435 320.8964 0006852  65.4219  92.4065 15.49965179368218
LANDSAT 7               
1 25682U 99020A   22316.41655523  .00000552  00000+0  12454-3 0  9998
2 25682  97.9617 358.7740 0001447  73.7121 286.4235 14.59843259254152
TERRA                   
1 25994U 99068A   22316.49508535  .00000502  00000+0  11681-3 0  9990
2 25994  98.1225  24.9810 0002405  57.8624  31.2527 14.58911768218185
TDRS 8                  
1 26388U 00034A   22315.75118887 -.00000227  00000+0  00000+0 0  9992
2 26388  10.5996  41.5248 0016506 335.0760  33.7685  1.00279841 82010
TIMED                   
1 26998U 01055B   22316.14410994  .00001033  00000+0  11388-3 0  9991
2 26998  74.0724 345.3643 0001966 246.5929 113.5045 14.88938957135120
TDRS 9                  
1 27389U 02011A   22315.49077139 -.00000280  00000+0  00000+0 0  9995
2 27389   9.3319  59.4641 0024364 292.7152 172.8525  1.00268635 77265
AQUA                    
1 27424U 02022A   22316.45830031  .00000967  00000+0  22308-3 0  9992
2 27424  98.2623 257.0454 0001851  94.0429  16.1726 14.57464954 91788
TDRS 10                 
1 27566U 02055A   22315.65318345  .00000097  00000+0  00000+0 0  9990
2 27566   8.4717  49.1204 0004516 322.0319 103.7003  1.00275508 73069
SORCE                   
1 27651U 03004A   22315.84702822  .00002436  00000+0  25900-3 0  9997
2 27651  39.9936 114.2625 0021405  67.6828 292.6228 14.90379336 75066
AURA                    
1 28376U 04026A   22315.86108658  .00000954  00000+0  22163-3 0  9997
2 28376  98.2243 257.1633 0001325  87.7864 272.3486 14.57125158974690
SWIFT                   
1 28485U 04047A   22315.81128728  .00005829  00000+0  34348-3 0  9990
2 28485  20.5584 355.2454 0010259  10.2033 349.8609 15.07495398985885
THEMIS A                
1 30580U 07004A   22316.11297410 -.00000233  00000+0 -48785-2 0  9999
2 30580  12.9665 329.7888 8362285 196.3482 237.1068  0.87834704 54422
THEMIS D                
1 30797U 07004D   22315.59625021 -.00000291  00000+0  00000+0 0  9991
2 30797   8.8197 318.3516 8316502 210.9858  85.7930  0.87836977 29532
THEMIS E                
1 30798U 07004E   22316.15354103 -.00000322  00000+0  00000+0 0  9990
2 30798   9.8666 333.1675 8309348 198.1878 252.6798  0.87840426 54365
AIM                     
1 31304U 07015A   22316.04193608  .00013616  00000+0  62685-3 0  9995
2 31304  97.8570 240.9720 0002914 199.6572 160.4550 15.20439209853594
FGRST (GLAST)           
1 33053U 08029A   22315.50437732  .00002787  00000+0  13824-3 0  9991
2 33053  25.5823 244.1526 0012222  84.9955 275.1976 15.12670832795984
WISE                    
1 36119U 09071A   22316.55328605  .00009152  00000+0  26616-3 0  9995
2 36119  97.2243 348.0800 0003815 114.1070 246.0573 15.35656628718238
TDRS 11                 
1 39070U 13004A   22316.57444444  .00000088  00000+0  00000+0 0  9991
2 39070   2.8161 350.5366 0003726  67.5609  26.1651  1.00277813 35826
TDRS 12                 
1 39504U 14004A   22315.56320817 -.00000264  00000+0  00000+0 0  9996
2 39504   3.7479 350.0204 0002989 204.0094  18.2088  1.00280323 32274
GPM-CORE                
1 39574U 14009C   22316.26797485  .00025659  00000+0  36357-3 0  9997
2 39574  65.0014  45.1625 0011963 276.0369  83.9414 15.56343134494610
MMS 1                   
1 40482U 15011A   22312.74992292 -.00000402  00000+0  00000+0 0  9995
2 40482  30.2281  93.4276 8849982  65.7177 109.9380  0.28546891 13713
MMS 2                   
1 40483U 15011B   22311.70027015 -.00000274  00000+0  00000+0 0  9990
2 40483  30.2153  93.4598 8848249  65.6945   2.0915  0.28544214 13776
MMS 3                   
1 40484U 15011C   22311.87388126 -.00000296  00000+0  00000+0 0  9996
2 40484  30.2240  93.4227 8846711  65.7056  19.9820  0.28544760 13452
MMS 4                   
1 40485U 15011D   22311.87388126 -.00000295  00000+0  00000+0 0  9996
2 40485  30.2225  93.4941 8847051  65.6498  19.9658  0.28544007 13662
TDRS 13                 
1 42915U 17047A   22316.44632872 -.00000092  00000+0  00000+0 0  9990
2 42915   4.2774 334.9896 0013738 123.4168 102.4677  1.00272837 19216
JPSS-1                  
1 43013U 17073A   22316.52265698  .00000091  00000+0  63865-4 0  9997
2 43013  98.7298 252.8270 0001217  57.0342 303.0951 14.19558624258230
